NUSANTARA TIGA (SATRIA) 
1 57045U 23086A   26162.58077184 -.00000218  00000+0  00000+0 0  9997
2 57045   0.0359 346.9063 0003408   1.0050 267.0947  1.00268753  9705
H2SAT (HEINRICH HERTZ)  
1 57213U 23093A   26162.62334441  .00000019  00000+0  00000+0 0  9997
2 57213   0.0589 109.4090 0000654  54.0522 321.6084  1.00270179 10864
SYRACUSE 4B             
1 57214U 23093B   26162.69317359  .00000000  00000+0  00000+0 0  9994
2 57214   0.0233   2.0683 0000386 215.2409 285.8397  1.00269085  6917
JUPITER 3 (ECHOSTAR 24) 
1 57479U 23108A   26162.54263440  .00000000  00000+0  00000+0 0  9999
2 57479   0.0212 343.0167 0001326  95.3302 281.6680  1.00270706 10585
GALAXY 37 (G-37)        
1 57493U 23112A   26162.66934015  .00000065  00000+0  00000+0 0  9997
2 57493   0.0164  13.6173 0001827  65.4944 294.8664  1.00270650 10485
LUDI TANCE-4 01A        
1 57624U 23120A   26162.56968169 -.00000152  00000+0  00000+0 0  9996
2 57624  15.1055 194.1091 0000911  71.7166 288.8863  1.00269904 10495
TJS-10                  
1 58204U 23169A   26162.75455294 -.00000232  00000+0  00000+0 0  9994
2 58204   2.5297  80.5535 0004094 101.7552  81.7662  1.00266176  9480
ZHONGXING-6E            
1 58253U 23172A   26162.75337668 -.00000345  00000+0  00000+0 0  9991
2 58253   0.0232  75.2812 0002312   7.2586 204.2689  1.00267396  9603
YAOGAN-41               
1 58582U 23197A   26162.71886315 -.00000346  00000+0  00000+0 0  9998
2 58582   3.1393 313.0466 0014046 193.5984 135.4062  1.00273232  9264
OVZON-3                 
1 58698U 24003A   26162.70629644  .00000000  00000+0  00000+0 0  9998
2 58698   0.0109 357.0732 0000357 220.3836 356.5428  1.00271177  7392
INSAT-3DS               
1 58990U 24033A   26162.71071646 -.00000140  00000+0  00000+0 0  9996
2 58990   0.0410 134.0649 0001086 300.5182 163.4221  1.00272207 47011
MERAH PUTIH 2           
1 58995U 24035A   26162.71686980  .00000000  00000+0  00000+0 0  9990
2 58995   0.0202   4.0427 0000888  95.6884 171.3474  1.00271038  8538
TJS-11                  
1 59020U 24037A   26160.79926416 -.00000338  00000+0  00000+0 0  9994
2 59020   4.2095 326.9725 0006664 186.9347 143.4309  1.00155909  8509
HULIANWAN GAOGUI-01 (H*)
1 59069U 24040A   26162.62984443  .00000172  00000+0  00000+0 0  9994
2 59069   0.0661 328.7755 0002819  66.1142 125.4241  1.00270916  7272
EUTELSAT 36D            
1 59346U 24059A   26162.70155140  .00000172  00000+0  00000+0 0  9995
2 59346   0.0179  13.2531 0000306 174.8409   0.3876  1.00270764  8091
PAKSAT-MM1              
1 59915U 24104A   26162.70207140  .00000170  00000+0  00000+0 0  9994
2 59915   0.0384 102.1830 0001861 327.6020 121.1919  1.00273353  7473
ASTRA 1P (SES-24)       
1 60086U 24115A   26162.69828693  .00000136  00000+0  00000+0 0  9999
2 60086   0.0592   1.3378 0001092 357.4845 171.8077  1.00265957  7146
GOES 19                 
1 60133U 24119A   26162.60826064 -.00000231  00000+0  00000+0 0  9994
2 60133   0.0445 149.2699 0000482  19.5805 234.8905  1.00270797  6909
ZHONGXING-3A            
1 60179U 24122A   26161.50261450 -.00000296  00000+0  00000+0 0  9999
2 60179   0.0455 133.0053 0001282 338.2817  70.1058  1.00270239  7247
TURKSAT 6A              
1 60233U 24127A   26162.63149110  .00000163  00000+0  00000+0 0  9990
2 60233   0.0537 218.6920 0001660 278.5344  32.1115  1.00274200  6965
HULIANWAN GAOGUI-02 (H*)
1 60327U 24135A   26162.72475652 -.00000157  00000+0  00000+0 0  9990
2 60327   0.0429 352.7196 0007514  13.9045 307.5323  1.00269766  7442
ZHONGXING-4A            
1 60606U 24151A   26162.71790980 -.00000345  00000+0  00000+0 0  9990
2 60606   1.3293 270.9068 0000452 228.7956 137.0007  1.00267750  6709
HULIANWAN GAOGUI-03 (H*)
1 61503U 24181A   26161.96630873 -.00000224  00000+0  00000+0 0  9996
2 61503   0.0449 358.0168 0001052  92.9248  79.0887  1.00274617  6763
DSN-3 (KIRAMEKI-3)      
1 61733U 24198A   26162.72302316 -.00000234  00000+0  00000+0 0  9993
2 61733   0.0176 321.9224 0000931 203.9787 138.5054  1.00269130  5865
KOREASAT 6A             
1 61910U 24206A   26162.71747647 -.00000345  00000+0  00000+0 0  9992
2 61910   0.0139 285.8295 0000722 133.6822 214.8496  1.00270664  5787
OPTUS-X (ADS-01)        
1 62006U 24212A   26162.63725144 -.00000127  00000+0  00000+0 0  9993
2 62006   0.0167 336.8050 0001626 146.3869 162.6012  1.00270308  5708
GSAT-N2 (GSAT-20)       
1 62028U 24214A   26162.56533278 -.00000002  00000+0  00000+0 0  9998
2 62028   0.0159  85.3297 0001898 347.1873  98.9080  1.00269112  5841
SXM-9                   
1 62259U 24234A   26162.60635396 -.00000189  00000+0  00000+0 0  9991
2 62259   0.0146 329.8489 0004870 343.4632  79.7701  1.00271803  5518
TJS-12                  
1 62374U 24246A   26162.58085852 -.00000214  00000+0  00000+0 0  9994
2 62374   0.6835 298.5724 0002091  83.2284 233.7977  1.00271151  5508
NUVIEW ALPHA            
1 62455U 24252B   26162.24618155 -.00000199  00000+0  00000+0 0  9994
2 62455   0.0621  39.7430 0001096 358.9977 226.4014  1.00273576  3769
AGILA                   
1 62456U 24252C   26162.65322007 -.00000165  00000+0  00000+0 0  9991
2 62456   0.0618 125.1158 0000805 350.0268 172.1615  1.00270762  5104
